%
O1042 (BRACKET POCKET - 6061-T6)
( MACHINE : HAAS VF-2 / CT40 DIRECT DRIVE )
( STOCK   : 6061-T6 PLATE 8.0 X 5.0 X 1.0 IN, G54 AT CORNER )
( PATHS ARE TOOL-CENTER PATHS - CUTTER COMP OFF (G40) )
( NOTE    : CAM EXPORT WITH MIXED STRATEGY DEFAULTS - VERIFY BEFORE FIRST RUN )
G90 G17 G20 G40 G80
G54
M5

T1 M6 (1/2 IN 4FL CARBIDE END MILL)
S8000 M3
( ---- T1 ROUGH PASS 1 OF 3 - Z -0.150 IN ---- )
(PASS T1 AP 0.150 AE 0.500 CLIMB)
G0 X0.25 Y0.25 Z0.050
G1 Z-0.150 F11.81 (PLUNGE)
G1 X5.75 F23.62
G1 Y0.75 F23.62 (CROSS FEED)
G1 X0.25 F23.62
G1 Y1.25 F23.62 (CROSS FEED)
G1 X5.75 F23.62
G1 Y1.75 F23.62 (CROSS FEED)
G1 X0.25 F23.62
G1 Y2.25 F23.62 (CROSS FEED)
G1 X5.75 F23.62
G1 Y2.75 F23.62 (CROSS FEED)
G1 X0.25 F23.62
G1 Y3.25 F23.62 (CROSS FEED)
G1 X5.75 F23.62
G1 Y3.75 F23.62 (CROSS FEED)
G1 X0.25 F23.62
( ---- T1 ROUGH PASS 2 OF 3 - Z -0.300 IN ---- )
(PASS T1 AP 0.150 AE 0.500 CLIMB)
G0 Z-0.100
G0 X0.25 Y0.25
G1 Z-0.300 F11.81 (REPLUNGE)
G1 X5.75 F23.62
G1 Y0.75 F23.62 (CROSS FEED)
G1 X0.25 F23.62
G1 Y1.25 F23.62 (CROSS FEED)
G1 X5.75 F23.62
G1 Y1.75 F23.62 (CROSS FEED)
G1 X0.25 F23.62
G1 Y2.25 F23.62 (CROSS FEED)
G1 X5.75 F23.62
G1 Y2.75 F23.62 (CROSS FEED)
G1 X0.25 F23.62
G1 Y3.25 F23.62 (CROSS FEED)
G1 X5.75 F23.62
G1 Y3.75 F23.62 (CROSS FEED)
G1 X0.25 F23.62
( ---- T1 ROUGH PASS 3 OF 3 - Z -0.450 IN ---- )
(PASS T1 AP 0.150 AE 0.500 CLIMB)
G0 Z-0.250
G0 X0.25 Y0.25
G1 Z-0.450 F11.81 (REPLUNGE)
G1 X5.75 F23.62
G1 Y0.75 F23.62 (CROSS FEED)
G1 X0.25 F23.62
G1 Y1.25 F23.62 (CROSS FEED)
G1 X5.75 F23.62
G1 Y1.75 F23.62 (CROSS FEED)
G1 X0.25 F23.62
G1 Y2.25 F23.62 (CROSS FEED)
G1 X5.75 F23.62
G1 Y2.75 F23.62 (CROSS FEED)
G1 X0.25 F23.62
G1 Y3.25 F23.62 (CROSS FEED)
G1 X5.75 F23.62
G1 Y3.75 F23.62 (CROSS FEED)
G1 X0.25 F23.62
G0 Z0.050

T2 M6 (1 IN 4FL CARBIDE END MILL)
S6000 M3
( ---- T2 DEEP SLOT CONTOUR - SINGLE PASS TO FINAL DEPTH ---- )
(PASS T2 AP 0.500 AE 1.000 CLIMB)
( AGGRESSIVE HSM DEFAULTS - TUNED FOR A 40HP SPINDLE )
G0 X1.75 Y1.25 Z0.050
G1 Z-0.950 F11.81 (PLUNGE THROUGH ROUGHED VOID)
G1 X4.25 F354.33
G1 Y2.75 F354.33
G1 X1.75 F354.33
G1 Y1.25 F354.33
G0 Z0.050
M5
M30
%
